{"type":"FeatureCollection","licence":"Data © OpenStreetMap contributors, ODbL 1.0. http://osm.org/copyright","features":[{"type":"Feature","properties":{"place_id":236741899,"osm_type":"relation","osm_id":1513456,"place_rank":12,"category":"boundary","type":"administrative","importance":0.3836391712731274,"addresstype":"town","name":"Pamplona","display_name":"Pamplona, Cagayan, Cagayan Valley, Philippines"},"bbox":[121.2523707,18.3622992,121.4709524,18.6471835],"geometry":{"type":"Polygon","coordinates":[[[121.2523707,18.4647348],[121.2527926,18.4643828],[121.2529625,18.4639665],[121.253366,18.4635548],[121.2535782,18.4630918],[121.2536843,18.462689],[121.2536702,18.4622391],[121.2533304,18.4619303],[121.2533517,18.4616819],[121.2534012,18.4612454],[121.2535286,18.4609164],[121.2534932,18.4603525],[121.2530473,18.4593588],[121.2527429,18.4588552],[121.2529199,18.4582308],[121.2528845,18.4575191],[121.2535286,18.4566999],[121.2535003,18.4557129],[121.2533021,18.4554108],[121.253457,18.4549003],[121.2540758,18.4536016],[121.2553004,18.4537369],[121.2569251,18.4535752],[121.2582113,18.4528276],[121.2590189,18.4514733],[121.2593634,18.4489184],[121.259355,18.4481339],[121.2598483,18.4463814],[121.2599472,18.4453143],[121.2600032,18.4447092],[121.2598491,18.4442223],[121.2592126,18.4437194],[121.2590735,18.4429382],[121.2593199,18.4414884],[121.2601177,18.4394458],[121.2600294,18.438403],[121.2596026,18.4377937],[121.25927,18.4369744],[121.2592417,18.4360519],[121.2595008,18.4354832],[121.2598908,18.4352834],[121.2609154,18.4353903],[121.2617201,18.4357007],[121.2632397,18.4366385],[121.264,18.4368865],[121.2643057,18.4365506],[121.2650514,18.4363267],[121.2669492,18.4362789],[121.2684138,18.4366391],[121.2695184,18.4369074],[121.2718092,18.4370406],[121.2735075,18.4363997],[121.274541,18.4352084],[121.2754706,18.4348064],[121.2763059,18.4342096],[121.2784856,18.4339317],[121.2806015,18.4331197],[121.2800612,18.4327836],[121.2798839,18.4324944],[121.2796022,18.4322851],[121.2792465,18.4322582],[121.2788665,18.4323482],[121.2785456,18.4322979],[121.2784153,18.4321818],[121.2784921,18.431729],[121.2786678,18.4313841],[121.2787202,18.431182],[121.2785948,18.430944],[121.2783906,18.4306714],[121.277999,18.4304784],[121.2777773,18.4301232],[121.2777061,18.4298625],[121.2777237,18.4296578],[121.2777216,18.4294163],[121.2778237,18.4292811],[121.277998,18.4292205],[121.2781765,18.4292796],[121.2784881,18.4292872],[121.2788688,18.4288444],[121.2791805,18.4282801],[121.2792767,18.428143],[121.2793323,18.4279686],[121.2793429,18.4277738],[121.2791959,18.4273555],[121.2792578,18.4270033],[121.2789716,18.4265263],[121.2787319,18.4264309],[121.2782368,18.4260493],[121.278144,18.4256897],[121.278144,18.4253742],[121.2783064,18.4249412],[121.2783374,18.4246991],[121.2781904,18.424156],[121.2782832,18.4237304],[121.2784689,18.4235103],[121.2789948,18.4232901],[121.2793352,18.4231507],[121.2795131,18.4229819],[121.2794589,18.4225343],[121.279312,18.4224389],[121.2791186,18.4224169],[121.2785462,18.4224829],[121.2783064,18.4224462],[121.2780821,18.4223581],[121.2778346,18.4219325],[121.2778424,18.421617],[121.2775948,18.4212794],[121.2776258,18.4210666],[121.2778733,18.4207804],[121.2779971,18.4205162],[121.2778037,18.4192246],[121.277765,18.4189531],[121.2778192,18.418799],[121.2780744,18.4186008],[121.2781285,18.4182926],[121.2781285,18.4179771],[121.2780125,18.4177863],[121.2778037,18.4176835],[121.2775871,18.4176982],[121.2773009,18.4177642],[121.2770921,18.4177642],[121.2769606,18.4176468],[121.2764037,18.4169864],[121.2762026,18.4167368],[121.2761562,18.4165534],[121.2761407,18.4161277],[121.2760324,18.4158269],[121.2757617,18.4156434],[121.2751661,18.4152764],[121.2749882,18.4150563],[121.2749495,18.4148435],[121.2750346,18.4146306],[121.2751816,18.4140509],[121.2751429,18.4135739],[121.2749418,18.4131849],[121.2747871,18.4129134],[121.2748446,18.4125358],[121.2768222,18.4103377],[121.2780177,18.4087248],[121.2818845,18.4073423],[121.2838645,18.4058357],[121.2873203,18.4039038],[121.289674,18.4029821],[121.2903692,18.4029288],[121.2909424,18.4030677],[121.2911944,18.4032143],[121.2915237,18.4031911],[121.2916864,18.4033339],[121.2919262,18.4036772],[121.2921295,18.4038469],[121.2923572,18.4038315],[121.292511,18.403606],[121.2925138,18.4033355],[121.2926212,18.4032202],[121.2930182,18.4030563],[121.2931583,18.4028259],[121.2932097,18.4026885],[121.2933171,18.4024891],[121.2935879,18.4021036],[121.2937701,18.401851],[121.2945219,18.4008629],[121.2951384,18.4006767],[121.2955026,18.4004375],[121.2958996,18.3999013],[121.2960023,18.399662],[121.2961891,18.3996265],[121.2963666,18.3999633],[121.296488,18.400145],[121.2969597,18.4001583],[121.2974701,18.3999721],[121.2977221,18.399645],[121.2984293,18.3992794],[121.2998078,18.399498],[121.3021681,18.4011676],[121.3051293,18.4014119],[121.3065026,18.4027353],[121.3089273,18.4027557],[121.3110302,18.4009639],[121.3127468,18.3996405],[121.3157079,18.3989686],[121.3188837,18.3988872],[121.3205574,18.3973601],[121.3217161,18.3947539],[121.3229392,18.3939191],[121.3224671,18.3911906],[121.3230679,18.3892155],[121.3252995,18.3868535],[121.3262866,18.382557],[121.3281748,18.3808465],[121.3274453,18.3773848],[121.3276975,18.3757993],[121.3295428,18.3741499],[121.3323752,18.3727651],[121.3336198,18.3710545],[121.3348643,18.3700363],[121.3378684,18.3689367],[121.3409798,18.3683054],[121.3432757,18.3664318],[121.3472312,18.3654196],[121.3513687,18.3647803],[121.3536754,18.3636654],[121.3549851,18.3622992],[121.356388,18.3629741],[121.3635083,18.3663995],[121.3636144,18.3663371],[121.3636273,18.3662485],[121.3636842,18.3662435],[121.3637528,18.3661396],[121.3639181,18.3660622],[121.3639728,18.366048],[121.3641402,18.3661121],[121.3642796,18.366219],[121.3643183,18.3662781],[121.3642888,18.3663326],[121.3643101,18.3666898],[121.3645547,18.3668731],[121.3645566,18.3673992],[121.3684417,18.3689871],[121.3692914,18.3691989],[121.3707634,18.3698628],[121.3712655,18.369932],[121.3713127,18.3697813],[121.3715788,18.3698709],[121.3724238,18.3698523],[121.3725373,18.3697702],[121.3728996,18.3698163],[121.373688,18.3699727],[121.3740286,18.3700697],[121.3741853,18.3700439],[121.3742466,18.370477],[121.3744918,18.3706645],[121.374812,18.3715826],[121.3755296,18.3727978],[121.3756134,18.3733007],[121.3759649,18.3736573],[121.3755945,18.3742731],[121.3756946,18.3743875],[121.375792,18.374503],[121.3761137,18.3744696],[121.3762543,18.3743824],[121.3764192,18.3743798],[121.3768031,18.374698],[121.3767652,18.3748186],[121.376475,18.3750431],[121.376621,18.3754871],[121.376887,18.3758169],[121.3771629,18.3770661],[121.3773657,18.3783027],[121.3774928,18.3793648],[121.3775495,18.3794495],[121.3775928,18.3797574],[121.3778496,18.3799755],[121.3778496,18.3803603],[121.3778956,18.3804527],[121.3780929,18.3805219],[121.378203,18.3807006],[121.3781895,18.3808597],[121.378303,18.3809521],[121.3784193,18.3812368],[121.3786518,18.3816268],[121.3788546,18.3821553],[121.3787219,18.3824308],[121.3787271,18.3829545],[121.3786419,18.3829448],[121.3785891,18.3829949],[121.3785295,18.3830094],[121.3784699,18.3831565],[121.3783762,18.3831937],[121.37832,18.3832567],[121.3783269,18.3833148],[121.378462,18.3834095],[121.3784836,18.383507],[121.3786161,18.3835635],[121.3788026,18.3836764],[121.3790243,18.3837969],[121.3792974,18.3839945],[121.3795542,18.3843229],[121.3800057,18.3844948],[121.380076,18.384641],[121.3802598,18.3848437],[121.3805193,18.3849412],[121.3807762,18.3850232],[121.3809492,18.3850258],[121.3810519,18.3849796],[121.3814034,18.3848924],[121.3817657,18.3847103],[121.3820495,18.3846025],[121.3821144,18.3844665],[121.382328,18.3845435],[121.3824713,18.3844563],[121.3824956,18.3843229],[121.3826146,18.3842536],[121.3827984,18.3842485],[121.3829633,18.3841228],[121.3831471,18.3841022],[121.3833283,18.3838713],[121.3834851,18.3838482],[121.3837879,18.3838405],[121.3839095,18.3842792],[121.3842177,18.3848744],[121.3845016,18.3856159],[121.3846974,18.3862855],[121.3848894,18.3868961],[121.3850002,18.3866677],[121.38513,18.3865343],[121.3851083,18.3864804],[121.3851624,18.3864599],[121.3854138,18.3862589],[121.3861408,18.3856684],[121.3875227,18.3856766],[121.3875524,18.3854014],[121.3894207,18.3856148],[121.3894377,18.3857748],[121.3906866,18.3858531],[121.3907992,18.3857434],[121.3909355,18.3855365],[121.3909718,18.3853253],[121.3909491,18.3851615],[121.3908401,18.3849373],[121.3907265,18.3846916],[121.3907265,18.3844977],[121.3908037,18.3842261],[121.3909854,18.3840321],[121.3911535,18.3838554],[121.3911989,18.3836744],[121.3913806,18.3835925],[121.3914792,18.3834309],[121.3914851,18.3832778],[121.3914351,18.3831011],[121.3914578,18.3829502],[121.3914458,18.3827257],[121.3913727,18.3826055],[121.3911474,18.3824604],[121.3911018,18.3823968],[121.3910374,18.3821091],[121.3909596,18.3816968],[121.3909489,18.3816102],[121.3910347,18.3813353],[121.3911366,18.3810884],[121.391252,18.3809917],[121.3914692,18.3807906],[121.3916866,18.380774],[121.3921002,18.3809843],[121.392303,18.3810793],[121.392576,18.3811357],[121.3925977,18.3809664],[121.3926436,18.3808689],[121.3927328,18.3805944],[121.3929897,18.3805738],[121.3933472,18.3804734],[121.3935716,18.3805247],[121.3943475,18.380671],[121.3955506,18.3809988],[121.395663,18.3809746],[121.3963812,18.3811716],[121.3963695,18.3814495],[121.3970213,18.3816413],[121.3977324,18.3823597],[121.3977945,18.3823469],[121.4027031,18.3838684],[121.4030328,18.3839864],[121.4030352,18.3840486],[121.4008292,18.3869724],[121.4008584,18.3870215],[121.4008181,18.3870608],[121.400803,18.3871717],[121.4007687,18.3873021],[121.4007998,18.3873703],[121.4007902,18.3874782],[121.400729,18.3875922],[121.4007848,18.3876543],[121.4008846,18.3878753],[121.4009672,18.3879587],[121.4010927,18.3880178],[121.4012204,18.3880412],[121.4012376,18.3881552],[121.4012869,18.3882245],[121.4014242,18.3882866],[121.4014882,18.3883532],[121.4014508,18.3884437],[121.4014337,18.3885423],[121.4015291,18.3885504],[121.4016517,18.3887217],[121.401713,18.3888494],[121.4017607,18.3891823],[121.4016926,18.3892453],[121.4016875,18.3893536],[121.401616,18.389407],[121.401571,18.389789],[121.4014756,18.3899163],[121.4014648,18.3899845],[121.4013414,18.3900456],[121.4013211,18.3901077],[121.4013157,18.3902023],[121.4012674,18.3902563],[121.4012406,18.3903907],[121.4013071,18.3904304],[121.4013468,18.3904915],[121.4014348,18.3905851],[121.4014326,18.3906483],[121.401365,18.3906686],[121.4012492,18.3908621],[121.4011687,18.3909038],[121.4011129,18.3910667],[121.4011569,18.3911003],[121.4011687,18.3911492],[121.4011365,18.3911828],[121.4010646,18.3913304],[121.4011022,18.39142],[121.4011312,18.3915554],[121.4010958,18.3916602],[121.4010346,18.3917946],[121.4009295,18.391817],[121.4008994,18.3919392],[121.4009284,18.3921357],[121.4009048,18.3922711],[121.4007535,18.3924839],[121.4006677,18.3925887],[121.4006087,18.3927302],[121.4006001,18.3928331],[121.4005475,18.3930336],[121.400451,18.3931599],[121.4002761,18.3932006],[121.4002246,18.3933126],[121.4000658,18.3934236],[121.3999137,18.3934328],[121.3999069,18.3935281],[121.3998098,18.3936009],[121.3998286,18.3937528],[121.3997145,18.3939112],[121.399631,18.3939338],[121.3995476,18.3939758],[121.3995714,18.3941196],[121.399614,18.3941455],[121.3995782,18.3942344],[121.3994471,18.3943879],[121.399459,18.3944736],[121.3992819,18.394661],[121.3990434,18.3949147],[121.3990264,18.3950311],[121.3990945,18.3950521],[121.3990417,18.395183],[121.3989327,18.3953188],[121.3988595,18.3956597],[121.3986977,18.395802],[121.3986194,18.3959975],[121.3987028,18.3960557],[121.3987846,18.3960508],[121.3988868,18.3960832],[121.3989072,18.3961591],[121.3987522,18.3964064],[121.3987522,18.3965082],[121.3987522,18.3968702],[121.3986381,18.397237],[121.3986866,18.397478],[121.3986372,18.3976364],[121.39869,18.3977042],[121.3987377,18.3978771],[121.398828,18.3979935],[121.3988518,18.3980872],[121.3990085,18.3981648],[121.3991465,18.3982246],[121.3993253,18.3982698],[121.3994254,18.3983293],[121.3994683,18.3983832],[121.3994984,18.3984158],[121.3995231,18.3984851],[121.3995456,18.3984789],[121.3995831,18.398424],[121.3996293,18.3984209],[121.3997012,18.3983965],[121.3998739,18.3983547],[121.3999339,18.3983663],[121.3999816,18.3984649],[121.3999697,18.3985085],[121.400048,18.39862],[121.40014,18.3987283],[121.4002081,18.3988059],[121.4002371,18.3989335],[121.4003256,18.3990062],[121.4003852,18.3990046],[121.4004823,18.398906],[121.4005641,18.3988834],[121.4006679,18.3989481],[121.4007735,18.3990515],[121.4008434,18.3991598],[121.4008536,18.3992519],[121.4009166,18.3992907],[121.4009626,18.3993262],[121.4010954,18.3992923],[121.4011823,18.3993181],[121.4013202,18.3993327],[121.4014871,18.3994135],[121.4016489,18.3994183],[121.4017903,18.3995008],[121.4018618,18.3995816],[121.4019402,18.3996026],[121.4020883,18.3997108],[121.4022433,18.3997706],[121.4022689,18.3997997],[121.4024187,18.3998692],[121.4024698,18.3999338],[121.402446,18.4001181],[121.40248,18.4001682],[121.4025822,18.4001585],[121.4026299,18.400194],[121.4027236,18.4002053],[121.4028087,18.4002005],[121.4028922,18.4002167],[121.4029416,18.4002991],[121.4030472,18.4003669],[121.4030642,18.400417],[121.4032379,18.4006497],[121.4033265,18.4007015],[121.4033997,18.4006417],[121.4035819,18.4005754],[121.4036245,18.4005269],[121.4037046,18.4005092],[121.4039668,18.4005528],[121.4040912,18.4006239],[121.4041355,18.4007596],[121.4042462,18.4009406],[121.4043943,18.4010586],[121.4045629,18.4012089],[121.4046804,18.4013915],[121.4048116,18.4015887],[121.4049495,18.4016759],[121.4050909,18.4017244],[121.4053157,18.4018149],[121.405385,18.4019407],[121.4054742,18.4020151],[121.4056418,18.4020356],[121.4057716,18.4022305],[121.4060257,18.4022921],[121.4061068,18.4023998],[121.4063772,18.402387],[121.4065227,18.4025004],[121.4067203,18.4026782],[121.4069059,18.4027396],[121.407083,18.4027154],[121.4073283,18.4027105],[121.4075003,18.4027687],[121.4076161,18.4029303],[121.4077575,18.4030935],[121.4079175,18.4031662],[121.4080419,18.4032115],[121.4081475,18.4032648],[121.4081475,18.4033569],[121.4081049,18.4034684],[121.4080231,18.403504],[121.4079925,18.4037027],[121.4079056,18.4039467],[121.4079533,18.4040954],[121.4080231,18.4042198],[121.4081015,18.4042926],[121.4083484,18.4045737],[121.408374,18.4047256],[121.4083348,18.4048194],[121.408374,18.4049729],[121.4085221,18.4050892],[121.4085732,18.4051555],[121.4084063,18.4052832],[121.4084709,18.4054677],[121.4083483,18.4057763],[121.4081618,18.4058995],[121.408132,18.4064125],[121.4082321,18.4067255],[121.4081239,18.4072257],[121.4081374,18.4073642],[121.4079455,18.4074565],[121.4078716,18.4076326],[121.4078018,18.4078831],[121.4078052,18.4079946],[121.4076519,18.4081594],[121.4076604,18.4082984],[121.4075906,18.4084163],[121.4075361,18.4085763],[121.4076843,18.4087524],[121.4078137,18.4088656],[121.4078087,18.4090833],[121.4078615,18.409156],[121.4080026,18.4093752],[121.4083189,18.4096651],[121.4083541,18.4098318],[121.4084811,18.4099703],[121.4086406,18.410019],[121.4088083,18.4102422],[121.4088407,18.4109195],[121.408776,18.4112072],[121.4086397,18.4116192],[121.4085222,18.4117404],[121.4084524,18.4119925],[121.4084593,18.4122522],[121.4085647,18.4123599],[121.4088567,18.4124317],[121.4088973,18.412601],[121.4088405,18.4127985],[121.4087945,18.4131987],[121.4085401,18.4134875],[121.4084072,18.4138285],[121.4082097,18.4141177],[121.4080274,18.4143181],[121.4077379,18.4145136],[121.4075642,18.414533],[121.4074194,18.4144781],[121.4070856,18.4142615],[121.4069477,18.4143569],[121.4067535,18.414756],[121.4065713,18.414903],[121.4062903,18.4149693],[121.4059667,18.4151099],[121.405839,18.4153248],[121.4059071,18.4155203],[121.4062375,18.4156496],[121.4062681,18.4158839],[121.4061115,18.4159986],[121.4058815,18.4159178],[121.4057368,18.4160358],[121.4056908,18.4162685],[121.4058509,18.4163832],[121.4058407,18.4166046],[121.4055563,18.4167662],[121.4053314,18.4168405],[121.4050794,18.416834],[121.4047473,18.4170053],[121.4045685,18.4172364],[121.4045582,18.4173721],[121.4044798,18.4173508],[121.404058,18.4180562],[121.4040283,18.4182281],[121.4041364,18.4186282],[121.4041745,18.418914],[121.4040587,18.419457],[121.4039259,18.4196961],[121.4036568,18.4198286],[121.4034899,18.4200645],[121.4034248,18.4212356],[121.403311,18.4222462],[121.4030914,18.4232876],[121.4032622,18.4243908],[121.4034248,18.4250465],[121.4037175,18.4257639],[121.4042704,18.4262961],[121.4047451,18.4266831],[121.4047802,18.4274041],[121.4045467,18.428308],[121.4046366,18.42911],[121.4046496,18.4296955],[121.4046027,18.4302662],[121.4042104,18.4307979],[121.4031176,18.4310903],[121.4022303,18.4317283],[121.4011095,18.4327739],[121.4006052,18.4336777],[121.4001245,18.4350179],[121.3990622,18.4358322],[121.3981395,18.4362088],[121.3970666,18.4362292],[121.3961332,18.4356286],[121.3953929,18.4348042],[121.394084,18.4341579],[121.3920991,18.4341121],[121.3910209,18.4337813],[121.3894948,18.4326896],[121.3888353,18.4323521],[121.3880759,18.4322494],[121.3865125,18.4325556],[121.3849699,18.4331757],[121.3835621,18.4337363],[121.3829559,18.4342351],[121.3825988,18.4347126],[121.3819367,18.4361486],[121.3812094,18.4369722],[121.380102,18.4377694],[121.3799572,18.4379526],[121.379858,18.4381002],[121.3797584,18.4382902],[121.3796756,18.4385506],[121.3796568,18.4389068],[121.3796622,18.439314],[121.3797104,18.4396829],[121.3797963,18.4401155],[121.3799277,18.4405404],[121.3801262,18.4409755],[121.3805228,18.4416948],[121.3811776,18.442604],[121.3813627,18.4429322],[121.3815182,18.4433419],[121.3815903,18.4437914],[121.3816497,18.4449092],[121.3816819,18.4457947],[121.3817167,18.4463265],[121.3818106,18.4468124],[121.3820167,18.4472594],[121.3823524,18.447703],[121.383082,18.4483416],[121.3837775,18.4491455],[121.3842789,18.4502702],[121.3842966,18.4509489],[121.3840868,18.4522289],[121.3838086,18.453895],[121.3838437,18.4562136],[121.3840528,18.457587],[121.3844587,18.4581965],[121.3852649,18.4590979],[121.3852917,18.4599843],[121.3845554,18.4610516],[121.3846382,18.4623617],[121.3853676,18.4636241],[121.3862197,18.4643696],[121.3874536,18.4654686],[121.3885264,18.4652574],[121.3887334,18.46507],[121.3891572,18.4646426],[121.3896373,18.4645129],[121.3901684,18.4647113],[121.3904014,18.4651684],[121.3904791,18.4670968],[121.3912891,18.4692186],[121.391775,18.4696825],[121.392142,18.4696968],[121.3924992,18.4694738],[121.3931644,18.4681],[121.3940066,18.4676574],[121.3949423,18.4674225],[121.3959432,18.4675556],[121.3969272,18.4682773],[121.3965547,18.4694942],[121.3967126,18.4703074],[121.3971394,18.4710562],[121.3977956,18.4714707],[121.3983274,18.4715129],[121.3987941,18.47137],[121.3994059,18.4710944],[121.4002588,18.4706416],[121.401447,18.4704508],[121.4030135,18.4707052],[121.4042365,18.4710715],[121.4052021,18.4711529],[121.4058781,18.470868],[121.4065325,18.4702879],[121.4072406,18.4692093],[121.4079809,18.4683646],[121.4089036,18.4677235],[121.4104056,18.4670824],[121.4112532,18.4669145],[121.4120054,18.4668036],[121.4125299,18.4667263],[121.4129838,18.4686345],[121.4129065,18.4706942],[121.4130181,18.4724119],[121.4140427,18.4769532],[121.4709524,18.6008416],[121.4684015,18.6020966],[121.4661017,18.6031532],[121.4616626,18.6051038],[121.4584095,18.6064063],[121.4552445,18.6077665],[121.4521017,18.609074],[121.4500628,18.6098945],[121.4485641,18.6105515],[121.4480576,18.6107723],[121.4468607,18.6112916],[121.4423107,18.6131751],[121.4417464,18.6133976],[121.4334548,18.6170234],[121.4298352,18.6185485],[121.4283844,18.619137],[121.4234512,18.6212324],[121.4223468,18.6217102],[121.4190159,18.6231861],[121.4157789,18.6246444],[121.4109852,18.6267017],[121.4061145,18.6285897],[121.4011734,18.6303056],[121.3988563,18.6310193],[121.3980693,18.631319],[121.3977666,18.6314339],[121.3955693,18.6322651],[121.3949045,18.6325052],[121.3937622,18.6331598],[121.3902011,18.6351341],[121.3896607,18.6354237],[121.389448,18.6355472],[121.3881696,18.6362786],[121.3875559,18.6366644],[121.3822743,18.6396808],[121.3820355,18.6398106],[121.3820062,18.6398259],[121.3819005,18.6398863],[121.3815163,18.6401167],[121.3812307,18.6402837],[121.3805471,18.6407443],[121.3792675,18.6415698],[121.3781692,18.6422933],[121.3774391,18.6427686],[121.3768701,18.6432141],[121.3755448,18.6442192],[121.3755319,18.6442039],[121.3714417,18.6471835],[121.2893816,18.5519924],[121.2822953,18.543355],[121.2815443,18.5424396],[121.2811871,18.5419376],[121.2811292,18.5417116],[121.2807584,18.5414529],[121.2806068,18.5412787],[121.2804164,18.5410689],[121.2803487,18.5410187],[121.2803642,18.5408393],[121.2803642,18.5408342],[121.280138,18.5401004],[121.2801335,18.5399577],[121.2800557,18.5399145],[121.2800476,18.5398458],[121.2800798,18.5397415],[121.280179,18.539622],[121.280289,18.5396119],[121.280635,18.5395432],[121.2807396,18.5394949],[121.2809113,18.5393601],[121.2810079,18.5393296],[121.2812439,18.539266],[121.2813002,18.5392151],[121.2814477,18.5390142],[121.2815604,18.5389507],[121.2816838,18.5389252],[121.2818152,18.5389151],[121.2818367,18.5388896],[121.2818139,18.5386989],[121.2818185,18.5386658],[121.2817978,18.5386124],[121.2817441,18.5383378],[121.2817227,18.5380962],[121.2816851,18.5379843],[121.2816154,18.5378521],[121.2815912,18.5377681],[121.2816208,18.5376537],[121.2816234,18.5375825],[121.281492,18.5374375],[121.2814276,18.5372722],[121.2812989,18.5369925],[121.2812023,18.5368781],[121.2810736,18.5367967],[121.2810575,18.5367229],[121.2810763,18.5365449],[121.2811138,18.5364763],[121.2812747,18.5363288],[121.2812694,18.5362703],[121.2810977,18.5361024],[121.2810682,18.5360033],[121.2809958,18.5356905],[121.2808563,18.5353599],[121.2807975,18.5351826],[121.2806913,18.5351564],[121.2805009,18.5351221],[121.280238,18.5350737],[121.2800758,18.5350687],[121.2800007,18.5351043],[121.2799282,18.5351017],[121.2798344,18.5350648],[121.2796372,18.5349034],[121.279483,18.5348449],[121.279377,18.5348398],[121.2793368,18.5348677],[121.2792751,18.5349301],[121.2792067,18.5350203],[121.279141,18.5350839],[121.2791035,18.5351004],[121.2789828,18.5349275],[121.2788567,18.5348207],[121.2787977,18.5346707],[121.2787843,18.5345918],[121.2787601,18.5343528],[121.2787172,18.5342739],[121.2786207,18.5341646],[121.2785241,18.533984],[121.278457,18.5338492],[121.2782827,18.5336331],[121.2782344,18.5335975],[121.2781566,18.5336153],[121.277985,18.5336483],[121.2777865,18.5336229],[121.2776121,18.5336153],[121.2775156,18.5335619],[121.2773707,18.5333966],[121.2772796,18.5332033],[121.2771964,18.5330075],[121.2771723,18.5328701],[121.2771401,18.5326133],[121.2771293,18.5323641],[121.2770529,18.5322534],[121.277073,18.5321021],[121.2770864,18.531919],[121.277073,18.5318071],[121.2770864,18.5316749],[121.2771025,18.5315884],[121.2772688,18.5314613],[121.2773493,18.5313163],[121.27736,18.5312451],[121.277352,18.5311917],[121.2772045,18.5311205],[121.2771186,18.5310518],[121.2770274,18.5310289],[121.2769496,18.530973],[121.2766385,18.5308509],[121.2765607,18.5307695],[121.2765124,18.5306093],[121.2765151,18.5305457],[121.2766144,18.530266],[121.2766734,18.5300752],[121.2766814,18.5300295],[121.2766466,18.5299786],[121.2766305,18.5298184],[121.2765741,18.5297573],[121.2765634,18.5297039],[121.2765849,18.5296734],[121.2765929,18.5295895],[121.2765768,18.5295183],[121.2765527,18.5293301],[121.2765554,18.5292513],[121.2766197,18.5291724],[121.2766224,18.5291139],[121.2765661,18.5290631],[121.2764105,18.5289283],[121.2763622,18.5288393],[121.276271,18.528824],[121.276094,18.5289664],[121.2759894,18.5290605],[121.2758258,18.5292614],[121.2757963,18.5294445],[121.2757561,18.529531],[121.2755576,18.5296963],[121.2754235,18.5298235],[121.2753484,18.5298438],[121.2751552,18.529793],[121.2749326,18.5297751],[121.2748522,18.529737],[121.2747207,18.5297523],[121.2745249,18.5297497],[121.2745126,18.5295729],[121.2745415,18.5294938],[121.2745671,18.5293388],[121.2746147,18.529237],[121.2746028,18.5290432],[121.2739931,18.5289559],[121.2739105,18.5288165],[121.2738472,18.5287199],[121.2738161,18.5286222],[121.2735272,18.5285598],[121.2736231,18.5283545],[121.2736546,18.5282935],[121.2738135,18.5281838],[121.2738718,18.5280779],[121.2739934,18.5279245],[121.2741125,18.5278116],[121.2743485,18.5276717],[121.2744961,18.5275903],[121.2745812,18.5274936],[121.274665,18.527334],[121.274695,18.5271699],[121.2746024,18.5271579],[121.2744109,18.5270883],[121.2742708,18.5268314],[121.2739695,18.5267339],[121.2738602,18.526645],[121.2738824,18.5264765],[121.274028,18.5263202],[121.2741025,18.5261263],[121.2742277,18.525957],[121.2742316,18.5258522],[121.2739004,18.5254815],[121.2734498,18.525512],[121.2732513,18.5255145],[121.273179,18.5254586],[121.2732326,18.5250593],[121.2730852,18.5250352],[121.2727322,18.5250528],[121.2725995,18.5249474],[121.2724386,18.5248558],[121.2720237,18.5245451],[121.2716715,18.5240395],[121.2716201,18.5238546],[121.2717005,18.5232314],[121.2717413,18.5228721],[121.2716246,18.5226025],[121.2716186,18.522321],[121.2716536,18.5222167],[121.2716938,18.5221531],[121.2716845,18.5220361],[121.2715933,18.5219866],[121.2712858,18.521901],[121.2711463,18.5218088],[121.271018,18.521772],[121.270909,18.5217357],[121.2707993,18.5217233],[121.2707015,18.5217624],[121.2704674,18.5217583],[121.2703098,18.5216018],[121.2703457,18.5215052],[121.2704325,18.5214404],[121.2705666,18.5212112],[121.2706006,18.5210869],[121.2706545,18.5210284],[121.2709442,18.5205203],[121.2709951,18.520411],[121.2709951,18.5203169],[121.2708959,18.5201414],[121.2709066,18.5200625],[121.270971,18.5198921],[121.2709898,18.519793],[121.2710005,18.5196887],[121.271081,18.5196607],[121.2712124,18.5196226],[121.2712204,18.5195717],[121.2711936,18.5194471],[121.2712204,18.5194115],[121.2713492,18.5194038],[121.2715021,18.5193809],[121.2715705,18.5194076],[121.2716617,18.5194432],[121.271726,18.5194369],[121.2718119,18.5193784],[121.2718669,18.5193491],[121.2719339,18.5193606],[121.2721056,18.5195195],[121.2721592,18.5195272],[121.2722652,18.5194547],[121.2723657,18.519414],[121.2724543,18.5194127],[121.2725173,18.5194115],[121.2725589,18.5193848],[121.2726165,18.5193148],[121.2726729,18.5192334],[121.2727493,18.5191457],[121.2728982,18.5190045],[121.2729907,18.5189346],[121.2730537,18.5189308],[121.2732026,18.5188646],[121.2733112,18.5188418],[121.2733501,18.5188061],[121.273389,18.5186942],[121.2736458,18.5184371],[121.2737215,18.5183295],[121.2736053,18.5179808],[121.2736566,18.5177757],[121.2741216,18.5172784],[121.2733295,18.5166298],[121.2736512,18.5162274],[121.2732497,18.515626],[121.2732343,18.5154645],[121.2733416,18.515303],[121.2733791,18.5150188],[121.2732599,18.5148734],[121.2731883,18.5145488],[121.2727103,18.5141486],[121.272613,18.5139384],[121.2725373,18.5133334],[121.272294,18.5131719],[121.2720615,18.5131437],[121.2718858,18.5127105],[121.2723163,18.5127133],[121.2726542,18.5127108],[121.2726137,18.5124698],[121.2727759,18.5122442],[121.2727624,18.5120545],[121.2727083,18.5118058],[121.2723731,18.5116905],[121.2720243,18.5116212],[121.2719783,18.5114725],[121.2721727,18.5112365],[121.2723619,18.5110183],[121.272396,18.5107534],[121.2722273,18.5105871],[121.271644,18.5089454],[121.2719063,18.5077679],[121.2645547,18.4846186],[121.2531701,18.4675177],[121.2523707,18.4647348]]]}}]}